{"type": "FeatureCollection", "features": [ {"type": "Feature", "properties": {"norad_id": 61183, "name": "GSAT0226 (GALILEO 31)", "group": "galileo", "lat": -10.102932620039505, "lon": -140.7946516021699, "alt_km": 23225.227767155517, "timestamp": "2025-12-17T19:34:08.301697+00:00", "meta": {"OBJECT_NAME": "GSAT0226 (GALILEO 31)", "OBJECT_ID": "2024-167B", "EPOCH": "2025-12-12T20:26:08.685024", "MEAN_MOTION": 1.70473602, "ECCENTRICITY": 8.42e-05, "INCLINATION": 55.2391, "RA_OF_ASC_NODE": 226.433, "ARG_OF_PERICENTER": 113.0334, "MEAN_ANOMALY": 68.3038, "EPHEMERIS_TYPE": 0, "CLASSIFICATION_TYPE": "U", "NORAD_CAT_ID": 61183, "ELEMENT_SET_NO": 999, "REV_AT_EPOCH": 767, "BSTAR": 0, "MEAN_MOTION_DOT": 1.9e-07, "MEAN_MOTION_DDOT": 0}, "tle": {"line1": "1 61183U 24167B   25346.85148941  .00000019  00000+0  00000+0 0  9997", "line2": "2 61183  55.2391 226.4330 0000842 113.0334  68.3038  1.70473602  7673"}}, "geometry": {"type": "Point", "coordinates": [-140.7946516021699, -10.102932620039505]}}, {"type": "Feature", "properties": {"norad_id": 67160, "name": "GALILEO A", "group": "galileo", "lat": 20.810218277707133, "lon": -88.63873322817666, "alt_km": 22941.00592999563, "timestamp": "2025-12-17T19:34:08.301708+00:00", "meta": {"OBJECT_NAME": "GALILEO A", "OBJECT_ID": "2025-302A", "EPOCH": "2025-12-17T13:37:30.970848", "MEAN_MOTION": 1.72894122, "ECCENTRICITY": 0.0007404, "INCLINATION": 54.2333, "RA_OF_ASC_NODE": 107.264, "ARG_OF_PERICENTER": 239.3858, "MEAN_ANOMALY": 120.5001, "EPHEMERIS_TYPE": 0, "CLASSIFICATION_TYPE": "U", "NORAD_CAT_ID": 67160, "ELEMENT_SET_NO": 999, "REV_AT_EPOCH": 1, "BSTAR": 0, "MEAN_MOTION_DOT": -8e-08, "MEAN_MOTION_DDOT": 0}, "tle": {"line1": "1 67160U 25302A   25351.56771957 -.00000008  00000+0  00000+0 0  9992", "line2": "2 67160  54.2333 107.2640 0007404 239.3858 120.5001  1.72894122    11"}}, "geometry": {"type": "Point", "coordinates": [-88.63873322817666, 20.810218277707133]}}, {"type": "Feature", "properties": {"norad_id": 67161, "name": "GALILEO B", "group": "galileo", "lat": 20.688553349592105, "lon": -88.55249237864237, "alt_km": 22933.61145194607, "timestamp": "2025-12-17T19:34:08.301720+00:00", "meta": {"OBJECT_NAME": "GALILEO B", "OBJECT_ID": "2025-302B", "EPOCH": "2025-12-17T13:37:26.133312", "MEAN_MOTION": 1.7297556, "ECCENTRICITY": 0.0005026, "INCLINATION": 54.2323, "RA_OF_ASC_NODE": 107.2467, "ARG_OF_PERICENTER": 244.253, "MEAN_ANOMALY": 115.654, "EPHEMERIS_TYPE": 0, "CLASSIFICATION_TYPE": "U", "NORAD_CAT_ID": 67161, "ELEMENT_SET_NO": 999, "REV_AT_EPOCH": 2, "BSTAR": 0, "MEAN_MOTION_DOT": -8e-08, "MEAN_MOTION_DDOT": 0}, "tle": {"line1": "1 67161U 25302B   25351.56766358 -.00000008  00000+0  00000+0 0  9992", "line2": "2 67161  54.2323 107.2467 0005026 244.2530 115.6540  1.72975560    28"}}, "geometry": {"type": "Point", "coordinates": [-88.55249237864237, 20.688553349592105]}}]}